NAVSTAR 77 (USA 289)    
1 43873U 18109A   23209.25183546 -.00000002  00000+0  00000+0 0  9995
2 43873  55.1835 133.8713 0024998 192.9241 333.7032  2.00567142 33914
